{
"type": "FeatureCollection",
"name": "fbisd_schools2",
"crs": { "type": "name", "properties": { "name": "urn:ogc:def:crs:OGC:1.3:CRS84" } },
"features": [
{ "type": "Feature", "properties": { "USER_School_Number": "'079907001", "USER_School_Name": "DULLES H S", "Place_addr": "550 Dulles Ave, Sugar Land, Texas, 77478", "School_Type": "High School" }, "geometry": { "type": "Point", "coordinates": [ -95.582778845, 29.620202218 ] } },
{ "type": "Feature", "properties": { "USER_School_Number": "'079907004", "USER_School_Name": "CLEMENTS H S", "Place_addr": "4200 Elkins Rd, Sugar Land, Texas, 77479", "School_Type": "High School" }, "geometry": { "type": "Point", "coordinates": [ -95.631471, 29.576331 ] } },
{ "type": "Feature", "properties": { "USER_School_Number": "'079907005", "USER_School_Name": "KEMPNER H S", "Place_addr": "14777 Voss Rd, Sugar Land, Texas, 77498", "School_Type": "High School" }, "geometry": { "type": "Point", "coordinates": [ -95.64489, 29.642355000000101 ] } },
{ "type": "Feature", "properties": { "USER_School_Number": "'079907006", "USER_School_Name": "LAWRENCE E ELKINS H S", "Place_addr": "7007 Knights Ct, Missouri City, Texas, 77459", "School_Type": "High School" }, "geometry": { "type": "Point", "coordinates": [ -95.558364, 29.5457040000001 ] } },
{ "type": "Feature", "properties": { "USER_School_Number": "'079907002", "USER_School_Name": "WILLOWRIDGE H S", "Place_addr": "16301 Chimney Rock Rd, Houston, Texas, 77053", "School_Type": "High School" }, "geometry": { "type": "Point", "coordinates": [ -95.480271, 29.586141000000101 ] } },
{ "type": "Feature", "properties": { "USER_School_Number": "'079907008", "USER_School_Name": "HIGHTOWER H S", "Place_addr": "3333 Hurricane Ln, Missouri City, Texas, 77459", "School_Type": "High School" }, "geometry": { "type": "Point", "coordinates": [ -95.497388999999899, 29.531412 ] } },
{ "type": "Feature", "properties": { "USER_School_Number": "'079907012", "USER_School_Name": "THURGOOD MARSHALL H S", "Place_addr": "1220 Buffalo Run, Missouri City, Texas, 77489", "School_Type": "High School" }, "geometry": { "type": "Point", "coordinates": [ -95.5225305, 29.611440000000101 ] } },
{ "type": "Feature", "properties": { "USER_School_Number": "'079907011", "USER_School_Name": "GEORGE BUSH H S", "Place_addr": "6707 FM-1464, Richmond, Texas, 77407", "School_Type": "High School" }, "geometry": { "type": "Point", "coordinates": [ -95.687919401, 29.704110708 ] } },
{ "type": "Feature", "properties": { "USER_School_Number": "'079907007", "USER_School_Name": "STEPHEN F AUSTIN H S", "Place_addr": "3434 Pheasant Creek Dr, Sugar Land, Texas, 77498", "School_Type": "High School" }, "geometry": { "type": "Point", "coordinates": [ -95.6771775, 29.640987 ] } },
{ "type": "Feature", "properties": { "USER_School_Number": "'079907010", "USER_School_Name": "FORT BEND CO ALTER", "Place_addr": "400 Coen Rd, Rosharon, Texas, 77583", "School_Type": "Elementary/Secondary" }, "geometry": { "type": "Point", "coordinates": [ -95.4628605, 29.49363 ] } },
{ "type": "Feature", "properties": { "USER_School_Number": "'079907013", "USER_School_Name": "WILLIAM B TRAVIS H S", "Place_addr": "11111 Harlem Rd, Richmond, Texas, 77406", "School_Type": "High School" }, "geometry": { "type": "Point", "coordinates": [ -95.71653, 29.653506 ] } },
{ "type": "Feature", "properties": { "USER_School_Number": "'079907038", "USER_School_Name": "M R WOOD CENTER FOR LEARNING", "Place_addr": "138 Avenue F, Sugar Land, Texas, 77498", "School_Type": "Elementary/Secondary" }, "geometry": { "type": "Point", "coordinates": [ -95.637316499999898, 29.625822 ] } },
{ "type": "Feature", "properties": { "USER_School_Number": "'079907018", "USER_School_Name": "ALMETA CRAWFORD H S", "Place_addr": "801 Caldwell Ranch Blvd, Rosharon, Texas, 77583", "School_Type": "High School" }, "geometry": { "type": "Point", "coordinates": [ -95.4633536649999, 29.473122377 ] } },
{ "type": "Feature", "properties": { "USER_School_Number": "'079907016", "USER_School_Name": "RIDGE POINT H S", "Place_addr": "500 Waters Lake Blvd, Missouri City, Texas, 77459", "School_Type": "High School" }, "geometry": { "type": "Point", "coordinates": [ -95.5168965, 29.483937 ] } },
{ "type": "Feature", "properties": { "USER_School_Number": "'079907041", "USER_School_Name": "DULLES MIDDLE", "Place_addr": "500 Dulles Ave, Sugar Land, Texas, 77478", "School_Type": "Middle School" }, "geometry": { "type": "Point", "coordinates": [ -95.584383, 29.616948 ] } },
{ "type": "Feature", "properties": { "USER_School_Number": "'079907042", "USER_School_Name": "MISSOURI CITY MIDDLE", "Place_addr": "202 Martin Ln, Missouri City, Texas, 77489", "School_Type": "Middle School" }, "geometry": { "type": "Point", "coordinates": [ -95.541336, 29.615526 ] } },
{ "type": "Feature", "properties": { "USER_School_Number": "'079907044", "USER_School_Name": "QUAIL VALLEY MIDDLE", "Place_addr": "3019 FM-1092, Missouri City, Texas, 77459", "School_Type": "Middle School" }, "geometry": { "type": "Point", "coordinates": [ -95.563869121, 29.575143 ] } },
{ "type": "Feature", "properties": { "USER_School_Number": "'079907045", "USER_School_Name": "FIRST COLONY MIDDLE", "Place_addr": "3225 Austin Pkwy, Sugar Land, Texas, 77479", "School_Type": "Middle School" }, "geometry": { "type": "Point", "coordinates": [ -95.604084, 29.574684 ] } },
{ "type": "Feature", "properties": { "USER_School_Number": "'079907048", "USER_School_Name": "LAKE OLYMPIA MIDDLE", "Place_addr": "3100 Lake Olympia Pkwy, Missouri City, Texas, 77459", "School_Type": "Middle School" }, "geometry": { "type": "Point", "coordinates": [ -95.5529505, 29.558358000000101 ] } },
{ "type": "Feature", "properties": { "USER_School_Number": "'079907047", "USER_School_Name": "HODGES BEND MIDDLE", "Place_addr": "16510 Bissonnet St, Houston, Texas, 77083", "School_Type": "Middle School" }, "geometry": { "type": "Point", "coordinates": [ -95.675238, 29.677599 ] } },
{ "type": "Feature", "properties": { "USER_School_Number": "'079907049", "USER_School_Name": "MACARIO GARCIA MIDDLE", "Place_addr": "18550 Old Richmond Rd, Sugar Land, Texas, 77498", "School_Type": "Middle School" }, "geometry": { "type": "Point", "coordinates": [ -95.681088, 29.6345430000001 ] } },
{ "type": "Feature", "properties": { "USER_School_Number": "'079907043", "USER_School_Name": "SUGAR LAND MIDDLE", "Place_addr": "321 7th St, Sugar Land, Texas, 77498", "School_Type": "Middle School" }, "geometry": { "type": "Point", "coordinates": [ -95.629563, 29.628558000000101 ] } },
{ "type": "Feature", "properties": { "USER_School_Number": "'079907046", "USER_School_Name": "CHRISTA MCAULIFFE MIDDLE", "Place_addr": "16650 S Post Oak Rd, Houston, Texas, 77053", "School_Type": "Middle School" }, "geometry": { "type": "Point", "coordinates": [ -95.473746, 29.586735 ] } },
{ "type": "Feature", "properties": { "USER_School_Number": "'079907050", "USER_School_Name": "SARTARTIA MIDDLE", "Place_addr": "8125 Homeward Way, Sugar Land, Texas, 77479", "School_Type": "Middle School" }, "geometry": { "type": "Point", "coordinates": [ -95.673969, 29.586375 ] } },
{ "type": "Feature", "properties": { "USER_School_Number": "'079907051", "USER_School_Name": "FORT SETTLEMENT MIDDLE", "Place_addr": "5440 Elkins Rd, Sugar Land, Texas, 77479", "School_Type": "Middle School" }, "geometry": { "type": "Point", "coordinates": [ -95.631075, 29.556333000000102 ] } },
{ "type": "Feature", "properties": { "USER_School_Number": "'079907054", "USER_School_Name": "JAMES BOWIE MIDDLE", "Place_addr": "700 Plantation Dr, Richmond, Texas, 77406", "School_Type": "Middle School" }, "geometry": { "type": "Point", "coordinates": [ -95.7156345, 29.625984 ] } },
{ "type": "Feature", "properties": { "USER_School_Number": "'079907052", "USER_School_Name": "BILLY BAINES MIDDLE", "Place_addr": "9000 Sienna Ranch Rd, Missouri City, Texas, 77459", "School_Type": "Middle School" }, "geometry": { "type": "Point", "coordinates": [ -95.5335195, 29.512656 ] } },
{ "type": "Feature", "properties": { "USER_School_Number": "'079907053", "USER_School_Name": "DAVID CROCKETT MIDDLE", "Place_addr": "19001 Beechnut St, Richmond, Texas, 77407", "School_Type": "Middle School" }, "geometry": { "type": "Point", "coordinates": [ -95.728072499999897, 29.681604 ] } },
{ "type": "Feature", "properties": { "USER_School_Number": "'079907056", "USER_School_Name": "NEW MIDDLE #16", "Place_addr": "16431 Lexington Blvd, Sugar Land, Texas, 77479", "School_Type": "Middle School" }, "geometry": { "type": "Point", "coordinates": [ -95.6175345, 29.591397 ] } },
{ "type": "Feature", "properties": { "USER_School_Number": "'079907055", "USER_School_Name": "RONALD THORNTON MIDDLE", "Place_addr": "1909 Waters Lake Blvd, Missouri City, Texas, 77459", "School_Type": "Middle School" }, "geometry": { "type": "Point", "coordinates": [ -95.509215732, 29.471080708 ] } },
{ "type": "Feature", "properties": { "USER_School_Number": "'079907101", "USER_School_Name": "E A JONES EL", "Place_addr": "302 Martin Ln, Missouri City, Texas, 77489", "School_Type": "Elementary School" }, "geometry": { "type": "Point", "coordinates": [ -95.539923, 29.61432 ] } },
{ "type": "Feature", "properties": { "USER_School_Number": "'079907110", "USER_School_Name": "MEADOWS EL", "Place_addr": "12037 Pender Ln, Meadows Place, Texas, 77477", "School_Type": "Elementary School" }, "geometry": { "type": "Point", "coordinates": [ -95.591466, 29.650977000000101 ] } },
{ "type": "Feature", "properties": { "USER_School_Number": "'079907112", "USER_School_Name": "DULLES EL", "Place_addr": "630 Dulles Ave, Sugar Land, Texas, 77478", "School_Type": "Elementary School" }, "geometry": { "type": "Point", "coordinates": [ -95.582762558, 29.6185198270001 ] } },
{ "type": "Feature", "properties": { "USER_School_Number": "'079907111", "USER_School_Name": "QUAIL VALLEY EL", "Place_addr": "3500 Quail Village Dr, Missouri City, Texas, 77459", "School_Type": "Elementary School" }, "geometry": { "type": "Point", "coordinates": [ -95.55975, 29.58606 ] } },
{ "type": "Feature", "properties": { "USER_School_Number": "'079907102", "USER_School_Name": "LAKEVIEW EL", "Place_addr": "314 Lakeview Dr, Sugar Land, Texas, 77498", "School_Type": "Elementary School" }, "geometry": { "type": "Point", "coordinates": [ -95.628576968999894, 29.625380879 ] } },
{ "type": "Feature", "properties": { "USER_School_Number": "'079907114", "USER_School_Name": "TOWNEWEST EL", "Place_addr": "13927 Old Richmond Rd, Sugar Land, Texas, 77498", "School_Type": "Elementary School" }, "geometry": { "type": "Point", "coordinates": [ -95.630508, 29.671020000000102 ] } },
{ "type": "Feature", "properties": { "USER_School_Number": "'079907115", "USER_School_Name": "LANTERN LANE EL", "Place_addr": "3323 Mission Valley Dr, Missouri City, Texas, 77459", "School_Type": "Elementary School" }, "geometry": { "type": "Point", "coordinates": [ -95.5295505, 29.570904 ] } },
{ "type": "Feature", "properties": { "USER_School_Number": "'079907109", "USER_School_Name": "RIDGEMONT EL", "Place_addr": "4910 Raven Ridge Dr, Houston, Texas, 77053", "School_Type": "Elementary School" }, "geometry": { "type": "Point", "coordinates": [ -95.4607635, 29.589507 ] } },
{ "type": "Feature", "properties": { "USER_School_Number": "'079907119", "USER_School_Name": "SUGAR MILL EL", "Place_addr": "13707 Jess Pirtle Blvd, Sugar Land, Texas, 77498", "School_Type": "Elementary School" }, "geometry": { "type": "Point", "coordinates": [ -95.6248245, 29.6341830000001 ] } },
{ "type": "Feature", "properties": { "USER_School_Number": "'079907116", "USER_School_Name": "RIDGEGATE EL", "Place_addr": "6015 W Ridgecreek Dr, Houston, Texas, 77053", "School_Type": "Elementary School" }, "geometry": { "type": "Point", "coordinates": [ -95.475969, 29.596113 ] } },
{ "type": "Feature", "properties": { "USER_School_Number": "'079907117", "USER_School_Name": "COLONY BEND EL", "Place_addr": "2720 Planters St, Sugar Land, Texas, 77479", "School_Type": "Elementary School" }, "geometry": { "type": "Point", "coordinates": [ -95.610321, 29.580111 ] } },
{ "type": "Feature", "properties": { "USER_School_Number": "'079907122", "USER_School_Name": "HUNTERS GLEN EL", "Place_addr": "695 Independence Blvd, Missouri City, Texas, 77489", "School_Type": "Elementary School" }, "geometry": { "type": "Point", "coordinates": [ -95.512608, 29.600838 ] } },
{ "type": "Feature", "properties": { "USER_School_Number": "'079907120", "USER_School_Name": "SETTLERS WAY EL", "Place_addr": "3015 Settlers Way Blvd, Sugar Land, Texas, 77479", "School_Type": "Elementary School" }, "geometry": { "type": "Point", "coordinates": [ -95.5956825, 29.577015 ] } },
{ "type": "Feature", "properties": { "USER_School_Number": "'079907121", "USER_School_Name": "PALMER EL", "Place_addr": "4208 Crow Valley Dr, Missouri City, Texas, 77459", "School_Type": "Elementary School" }, "geometry": { "type": "Point", "coordinates": [ -95.5471635, 29.5594110000001 ] } },
{ "type": "Feature", "properties": { "USER_School_Number": "'079907127", "USER_School_Name": "BARRINGTON PLACE EL", "Place_addr": "2100 Squire Dobbins Dr, Sugar Land, Texas, 77478", "School_Type": "Elementary School" }, "geometry": { "type": "Point", "coordinates": [ -95.6078145, 29.653704000000101 ] } },
{ "type": "Feature", "properties": { "USER_School_Number": "'079907126", "USER_School_Name": "AUSTIN PARKWAY EL", "Place_addr": "4400 Austin Pkwy, Sugar Land, Texas, 77479", "School_Type": "Elementary School" }, "geometry": { "type": "Point", "coordinates": [ -95.5837665, 29.5755750000001 ] } },
{ "type": "Feature", "properties": { "USER_School_Number": "'079907125", "USER_School_Name": "PECAN GROVE EL", "Place_addr": "3330 Old South Dr, Richmond, Texas, 77406", "School_Type": "Elementary School" }, "geometry": { "type": "Point", "coordinates": [ -95.737833, 29.639412 ] } },
{ "type": "Feature", "properties": { "USER_School_Number": "'079907128", "USER_School_Name": "COLONY MEADOWS EL", "Place_addr": "4510 Sweetwater Blvd, Sugar Land, Texas, 77479", "School_Type": "Elementary School" }, "geometry": { "type": "Point", "coordinates": [ -95.629356, 29.581218 ] } },
{ "type": "Feature", "properties": { "USER_School_Number": "'079907129", "USER_School_Name": "MISSION WEST EL", "Place_addr": "7325 Clodine Rd, Houston, Texas, 77083", "School_Type": "Elementary School" }, "geometry": { "type": "Point", "coordinates": [ -95.687688791, 29.6923268520001 ] } },
{ "type": "Feature", "properties": { "USER_School_Number": "'079907132", "USER_School_Name": "LEXINGTON CREEK EL", "Place_addr": "2335 Dulles Ave, Missouri City, Texas, 77459", "School_Type": "Elementary School" }, "geometry": { "type": "Point", "coordinates": [ -95.580549, 29.589201 ] } },
{ "type": "Feature", "properties": { "USER_School_Number": "'079907131", "USER_School_Name": "EDGAR GLOVER JR EL", "Place_addr": "1510 Columbia Blue Dr, Missouri City, Texas, 77489", "School_Type": "Elementary School" }, "geometry": { "type": "Point", "coordinates": [ -95.5326825, 29.5904430000001 ] } },
{ "type": "Feature", "properties": { "USER_School_Number": "'079907133", "USER_School_Name": "ARIZONA FLEMING EL", "Place_addr": "14850 Bissonnet St, Houston, Texas, 77083", "School_Type": "Elementary School" }, "geometry": { "type": "Point", "coordinates": [ -95.650596, 29.677320000000101 ] } },
{ "type": "Feature", "properties": { "USER_School_Number": "'079907123", "USER_School_Name": "HIGHLANDS EL", "Place_addr": "2022 Colonist Park Dr, Sugar Land, Texas, 77478", "School_Type": "Elementary School" }, "geometry": { "type": "Point", "coordinates": [ -95.602662, 29.597553000000101 ] } },
{ "type": "Feature", "properties": { "USER_School_Number": "'079907135", "USER_School_Name": "COMMONWEALTH EL", "Place_addr": "4909 Commonwealth Blvd, Sugar Land, Texas, 77479", "School_Type": "Elementary School" }, "geometry": { "type": "Point", "coordinates": [ -95.614577999999895, 29.557854 ] } },
{ "type": "Feature", "properties": { "USER_School_Number": "'079907134", "USER_School_Name": "WALTER MOSES BURTON EL", "Place_addr": "1625 Hunter Green Ln, Fresno, Texas, 77545", "School_Type": "Elementary School" }, "geometry": { "type": "Point", "coordinates": [ -95.4763245, 29.51964 ] } },
{ "type": "Feature", "properties": { "USER_School_Number": "'079907130", "USER_School_Name": "WALKER STATION EL", "Place_addr": "6200 Homeward Way, Sugar Land, Texas, 77479", "School_Type": "Elementary School" }, "geometry": { "type": "Point", "coordinates": [ -95.6669265, 29.600298000000102 ] } },
{ "type": "Feature", "properties": { "USER_School_Number": "'079907136", "USER_School_Name": "BRAZOS BEND EL", "Place_addr": "621 Cunningham Creek Blvd, Sugar Land, Texas, 77479", "School_Type": "Elementary School" }, "geometry": { "type": "Point", "coordinates": [ -95.692158, 29.592891000000101 ] } },
{ "type": "Feature", "properties": { "USER_School_Number": "'079907138", "USER_School_Name": "OYSTER CREEK EL", "Place_addr": "16425 Mellow Oaks Ln, Sugar Land, Texas, 77498", "School_Type": "Elementary School" }, "geometry": { "type": "Point", "coordinates": [ -95.674212, 29.6459550000001 ] } },
{ "type": "Feature", "properties": { "USER_School_Number": "'079907137", "USER_School_Name": "SIENNA CROSSING EL", "Place_addr": "10011 Steep Bank Trce, Missouri City, Texas, 77459", "School_Type": "Elementary School" }, "geometry": { "type": "Point", "coordinates": [ -95.514952499999893, 29.5051500000001 ] } },
{ "type": "Feature", "properties": { "USER_School_Number": "'079907139", "USER_School_Name": "LULA BELLE GOODMAN EL", "Place_addr": "1100 W Sycamore St, Fresno, Texas, 77545", "School_Type": "Elementary School" }, "geometry": { "type": "Point", "coordinates": [ -95.468570999999898, 29.525814 ] } },
{ "type": "Feature", "properties": { "USER_School_Number": "'079907141", "USER_School_Name": "BARBARA JORDAN EL", "Place_addr": "17800 W Oaks Village Dr, Richmond, Texas, 77407", "School_Type": "Elementary School" }, "geometry": { "type": "Point", "coordinates": [ -95.6949165, 29.699712 ] } },
{ "type": "Feature", "properties": { "USER_School_Number": "'079907142", "USER_School_Name": "SCANLAN OAKS EL", "Place_addr": "9000 Camp Sienna Trl, Missouri City, Texas, 77459", "School_Type": "Elementary School" }, "geometry": { "type": "Point", "coordinates": [ -95.5342035, 29.491866000000101 ] } },
{ "type": "Feature", "properties": { "USER_School_Number": "'079907143", "USER_School_Name": "MARY AUSTIN HOLLEY EL", "Place_addr": "16655 Bissonnet St, Houston, Texas, 77083", "School_Type": "Elementary School" }, "geometry": { "type": "Point", "coordinates": [ -95.6769075, 29.675115000000101 ] } },
{ "type": "Feature", "properties": { "USER_School_Number": "'079907144", "USER_School_Name": "DR LYNN ARMSTRONG EL", "Place_addr": "3440 Independence Blvd, Missouri City, Texas, 77459", "School_Type": "Elementary School" }, "geometry": { "type": "Point", "coordinates": [ -95.560173, 29.596959 ] } },
{ "type": "Feature", "properties": { "USER_School_Number": "'079907140", "USER_School_Name": "RITA DRABEK EL", "Place_addr": "11325 Lake Woodbridge Dr, Sugar Land, Texas, 77498", "School_Type": "Elementary School" }, "geometry": { "type": "Point", "coordinates": [ -95.6441475, 29.649744000000101 ] } },
{ "type": "Feature", "properties": { "USER_School_Number": "'079907148", "USER_School_Name": "JAN SCHIFF EL", "Place_addr": "7400 Discovery Ln, Missouri City, Texas, 77459", "School_Type": "Elementary School" }, "geometry": { "type": "Point", "coordinates": [ -95.552811, 29.534625000000101 ] } },
{ "type": "Feature", "properties": { "USER_School_Number": "'079907147", "USER_School_Name": "CORNERSTONE EL", "Place_addr": "1800 Chatham Ave, Sugar Land, Texas, 77479", "School_Type": "Elementary School" }, "geometry": { "type": "Point", "coordinates": [ -95.656941, 29.586843 ] } },
{ "type": "Feature", "properties": { "USER_School_Number": "'079907146", "USER_School_Name": "ROSA PARKS EL", "Place_addr": "19101 Chimney Rock Rd, Fresno, Texas, 77545", "School_Type": "Elementary School" }, "geometry": { "type": "Point", "coordinates": [ -95.485932, 29.549376 ] } },
{ "type": "Feature", "properties": { "USER_School_Number": "'079907149", "USER_School_Name": "JUAN SEGUIN EL", "Place_addr": "7817 Grand Mission Blvd, Richmond, Texas, 77407", "School_Type": "Elementary School" }, "geometry": { "type": "Point", "coordinates": [ -95.716458, 29.6930160000001 ] } },
{ "type": "Feature", "properties": { "USER_School_Number": "'079907151", "USER_School_Name": "CAROLYN AND VERNON MADDEN EL", "Place_addr": "17727 Abermore Ln, Richmond, Texas, 77407", "School_Type": "Elementary School" }, "geometry": { "type": "Point", "coordinates": [ -95.6953845, 29.654874 ] } },
{ "type": "Feature", "properties": { "USER_School_Number": "'079907145", "USER_School_Name": "OAKLAND EL", "Place_addr": "4455 Waterside Estates Dr, Richmond, Texas, 77406", "School_Type": "Elementary School" }, "geometry": { "type": "Point", "coordinates": [ -95.7365235, 29.655495 ] } },
{ "type": "Feature", "properties": { "USER_School_Number": "'079907152", "USER_School_Name": "ANNE MCCORMICK SULLIVAN EL", "Place_addr": "17828 Winding Waters Ln, Sugar Land, Texas, 77479", "School_Type": "Elementary School" }, "geometry": { "type": "Point", "coordinates": [ -95.593806, 29.540736 ] } },
{ "type": "Feature", "properties": { "USER_School_Number": "'079907153", "USER_School_Name": "DONALD LEONETTI EL", "Place_addr": "1757 Waters Lake Blvd, Missouri City, Texas, 77459", "School_Type": "Elementary School" }, "geometry": { "type": "Point", "coordinates": [ -95.50791, 29.470743 ] } },
{ "type": "Feature", "properties": { "USER_School_Number": "'079907154", "USER_School_Name": "JAMES C NEILL EL", "Place_addr": "3830 Harvest Corner Dr, Richmond, Texas, 77406", "School_Type": "Elementary School" }, "geometry": { "type": "Point", "coordinates": [ -95.721255, 29.649798 ] } },
{ "type": "Feature", "properties": { "USER_School_Number": "'079907150", "USER_School_Name": "HERITAGE ROSE EL", "Place_addr": "636 Glendale Lakes Dr, Rosharon, Texas, 77583", "School_Type": "Elementary School" }, "geometry": { "type": "Point", "coordinates": [ -95.463063, 29.481453 ] } },
{ "type": "Feature", "properties": { "USER_School_Number": "'079907155", "USER_School_Name": "JAMES PATTERSON EL", "Place_addr": "18702 Beechnut St, Richmond, Texas, 77407", "School_Type": "Elementary School" }, "geometry": { "type": "Point", "coordinates": [ -95.7089655, 29.685087 ] } },
{ "type": "Feature", "properties": { "USER_School_Number": "'079907157", "USER_School_Name": "EL DAEP", "Place_addr": "1510 Columbia Blue Dr, Missouri City, Texas, 77489", "School_Type": "Elementary School" }, "geometry": { "type": "Point", "coordinates": [ -95.5326825, 29.5904430000001 ] } },
{ "type": "Feature", "properties": { "USER_School_Number": "'079907159", "USER_School_Name": "NEW EL #52", "Place_addr": "16431 Lexington Blvd, Sugar Land, Texas, 77479", "School_Type": "Elementary School" }, "geometry": { "type": "Point", "coordinates": [ -95.6175345, 29.591397 ] } },
{ "type": "Feature", "properties": { "USER_School_Number": "'079907161", "USER_School_Name": "HUNTERS GLEN EARLY LITERACY CENTER", "Place_addr": "695 Independence Blvd, Missouri City, Texas, 77489", "School_Type": "Elementary School" }, "geometry": { "type": "Point", "coordinates": [ -95.512608, 29.600838 ] } },
{ "type": "Feature", "properties": { "USER_School_Number": "'079907160", "USER_School_Name": "SONAL S BHUCHAR EL", "Place_addr": "5503 Thompson Ferry Rd, Missouri City, Texas, 77459", "School_Type": "Elementary School" }, "geometry": { "type": "Point", "coordinates": [ -95.557726241999902, 29.556144814 ] } },
{ "type": "Feature", "properties": { "USER_School_Number": "'079907156", "USER_School_Name": "MALALA YOUSAFZAI", "Place_addr": "11770 W Alaina Trce, Richmond, Texas, 77407", "School_Type": "Elementary School" }, "geometry": { "type": "Point", "coordinates": [ -95.704748999999893, 29.641896 ] } },
{ "type": "Feature", "properties": { "USER_School_Number": "'079907158", "USER_School_Name": "RIDGEMONT EARLY LITERACY CENTER", "Place_addr": "5353 Ridgecreek Dr, Houston, Texas, 77053", "School_Type": "Elementary School" }, "geometry": { "type": "Point", "coordinates": [ -95.463982726, 29.5940224890001 ] } },
{ "type": "Feature", "properties": { "USER_School_Number": "'079907163", "USER_School_Name": "BLUE RIDGE BRIARGATE EL", "Place_addr": "6241 McHard Rd, Houston, Texas, 77053", "School_Type": "Elementary School" }, "geometry": { "type": "Point", "coordinates": [ -95.475411, 29.581443 ] } },
{ "type": "Feature", "properties": { "USER_School_Number": "'079907165", "USER_School_Name": "NEW EL #55", "Place_addr": "16431 Lexington Blvd, Sugar Land, Texas, 77479", "School_Type": "Elementary School" }, "geometry": { "type": "Point", "coordinates": [ -95.6175345, 29.591397 ] } },
{ "type": "Feature", "properties": { "USER_School_Number": "'079907162", "USER_School_Name": "ALYSSA FERGUSON EL", "Place_addr": "1300 Heritage Park Dr, Sienna, TX 77459", "School_Type": "Elementary School" }, "geometry": { "type": "Point", "coordinates": [ -95.52213, 29.469029 ] } },
{ "type": "Feature", "properties": { "USER_School_Number": "'079907166", "USER_School_Name": "FERNDELL HENRY EL", "Place_addr": "16431 Lexington Blvd, Sugar Land, Texas, 77479", "School_Type": "Elementary School" }, "geometry": { "type": "Point", "coordinates": [ -95.6175345, 29.591397 ] } },
{ "type": "Feature", "properties": { "USER_School_Number": "'079907164", "USER_School_Name": "MISSION BEND GLEN EL", "Place_addr": "16003 Mission Glen Dr, Houston, Texas, 77083", "School_Type": "Elementary School" }, "geometry": { "type": "Point", "coordinates": [ -95.667453, 29.681568 ] } }
]
}
